TDRS 3                  
1 19548U 88091B   26064.79815523 -.00000303  00000+0  00000+0 0  9996
2 19548  12.6797 341.6841 0044183 353.3967  66.2018  1.00259845124356
HST                     
1 20580U 90037B   26066.07173350  .00008800  00000+0  29166-3 0  9992
2 20580  28.4710  57.8566 0001811 100.2255 259.8544 15.29432288772919
TDRS 5                  
1 21639U 91054B   26065.52309884  .00000082  00000+0  00000+0 0  9996
2 21639  14.0838 354.5373 0010509 278.0351 272.4101  1.00267576126682
TDRS 6                  
1 22314U 93003B   26066.12575171 -.00000296  00000+0  00000+0 0  9992
2 22314  14.1809 357.8150 0005470 200.0439 326.3296  1.00277756121381
TDRS 7                  
1 23613U 95035B   26065.60770791 -.00000241  00000+0  00000+0 0  9999
2 23613  13.4196 348.8936 0008256  47.7375  75.5122  1.00275918112229
ISS (ZARYA)             
1 25544U 98067A   26065.86737742  .00008564  00000+0  16627-3 0  9990
2 25544  51.6318  86.3097 0008109 164.5613 195.5624 15.48482048555891
TERRA                   
1 25994U 99068A   26066.18245512  .00000502  00000+0  11129-3 0  9992
2 25994  97.9598 119.7129 0002549 157.7007 269.8251 14.61011101394718
TDRS 8                  
1 26388U 00034A   26065.88367973 -.00000197  00000+0  00000+0 0  9990
2 26388  12.5230  32.1750 0006147 309.3240 226.0171  1.00276039 94155
TIMED                   
1 26998U 01055B   26066.17003294  .00001664  00000+0  15570-3 0  9998
2 26998  74.0660  80.3917 0003019 278.6821  81.4022 14.95011704315574
AQUA                    
1 27424U 02022A   26066.22005875  .00001352  00000+0  27967-3 0  9998
2 27424  98.4172  33.5400 0000582  69.7100 348.1417 14.61969233268373
SORCE                   
1 27651U 03004A   26066.17438366  .00003876  00000+0  29266-3 0  9997
2 27651  39.9900 123.4374 0016148  35.6865 324.5005 15.03073566256547
AURA                    
1 28376U 04026A   26066.09477596  .00001348  00000+0  28373-3 0  9996
2 28376  98.3308  21.7809 0001020  81.7081 278.4235 14.61141228151305
SWIFT                   
1 28485U 04047A   26065.79408071  .00045449  00000+0  54737-3 0  9991
2 28485  20.5529 249.2327 0003487 356.0268   4.0148 15.58979633170813
THEMIS A                
1 30580U 07004A   26065.25425208 -.00000231  00000+0 -57120-2 0  9998
2 30580   6.7657 120.0357 8404679 177.7629 194.1197  0.87846947 40373
THEMIS D                
1 30797U 07004D   26066.13038223 -.00000289  00000+0  00000+0 0  9997
2 30797   6.6363  84.5966 8357397 216.1101  98.3958  0.87835931 40183
THEMIS E                
1 30798U 07004E   26066.13107556 -.00000289  00000+0  00000+0 0  9994
2 30798   4.1604  99.7438 8361394 201.9151 113.0212  0.87837684 65021
FGRST (GLAST)           
1 33053U 08029A   26065.73530054  .00004828  00000+0  18384-3 0  9997
2 33053  25.5812 195.5362 0008149 193.3644 166.6679 15.23303351980196
